{"spkid": "20277475", "covariance": {"labels": ["e", "q", "tp", "node", "peri", "i"], "elements": [{"title": "eccentricity", "value": ".2373249312357439", "units": null, "sigma": 5.20538179751193e-08, "name": "e", "label": "e"}, {"name": "q", "sigma": 5.03232049713297e-08, "units": "au", "title": "perihelion distance", "value": ".7716375363349388", "label": "q"}, {"sigma": 4.26248802743705e-06, "name": "tp", "units": "TDB", "value": "2455318.237275327618", "title": "time of perihelion passage", "label": "tp"}, {"title": "longitude of the ascending node", "value": "138.2916879623809", "units": "deg", "name": "om", "sigma": 4.15392491262364e-06, "label": "node"}, {"units": "deg", "title": "argument of perihelion", "value": "74.31760843478038", "sigma": 6.83783169197747e-06, "name": "w", "label": "peri"}, {"units": "deg", "value": "9.832927707780474", "title": "inclination", "sigma": 4.01001639006458e-06, "name": "i", "label": "i"}], "data": [["2.709599965786857E-15", "-2.618468634782813E-15", "-6.227407003914632E-14", "2.131764254099709E-15", "-8.747466843515626E-14", "-1.874407228369507E-13"], ["-2.618468634782813E-15", "2.532424958586461E-15", "5.554163233384083E-14", "-1.181990535305899E-15", "8.376917912340085E-14", "1.810845830180843E-13"], ["-6.227407003914632E-14", "5.554163233384083E-14", "1.816880418404423E-11", "-1.191609330439774E-11", "1.989712786622492E-11", "3.73339718297012E-12"], ["2.131764254099709E-15", "-1.181990535305899E-15", "-1.191609330439774E-11", "1.725509217971534E-11", "-2.742433761772152E-11", "-6.78960214265901E-13"], ["-8.747466843515626E-14", "8.376917912340085E-14", "1.989712786622492E-11", "-2.742433761772152E-11", "4.67559422478115E-11", "5.871719170305237E-12"], ["-1.874407228369507E-13", "1.810845830180843E-13", "3.73339718297012E-12", "-6.78960214265901E-13", "5.871719170305237E-12", "1.608023144858656E-11"]], "epoch": "2455156.5"}, "elements": [{"value": ".2373000555568198", "title": "eccentricity", "units": null, "name": "e", "sigma": "5.1878E-8", "label": "e"}, {"label": "a", "name": "a", "sigma": "2.6523E-9", "title": "semi-major axis", "value": "1.01054372930503", "units": "au"}, {"title": "perihelion distance", "value": ".7707416461983505", "units": "au", "sigma": "5.0793E-8", "name": "q", "label": "q"}, {"label": "i", "sigma": "4.0107E-6", "name": "i", "value": "9.843838332407492", "title": "inclination; angle with respect to x-y ecliptic plane", "units": "deg"}, {"label": "node", "name": "om", "sigma": "4.1456E-6", "units": "deg", "title": "longitude of the ascending node", "value": "138.108044740492"}, {"label": "peri", "name": "w", "sigma": "6.7344E-6", "units": "deg", "value": "74.12635952046445", "title": "argument of perihelion"}, {"label": "M", "sigma": "2.4133E-5", "name": "ma", "title": "mean anomaly", "value": "305.458038923551", "units": "deg"}, {"units": "TDB", "title": "time of perihelion passage", "value": "2461256.715922585189", "sigma": "2.5092E-5", "name": "tp", "label": "tp"}, {"label": "period", "units": "d", "title": "sidereal orbital period", "value": "371.0488536028564", "name": "per", "sigma": "1.4608E-6"}, {"sigma": "3.8197E-9", "name": "n", "units": "deg/d", "value": ".9702226445505145", "title": "mean motion", "label": "n"}, {"units": "au", "value": "1.25034581241171", "title": "aphelion distance", "sigma": "3.2817E-9", "name": "ad", "label": "Q"}], "epoch": "2461200.5"}